[
  {
    "COMMENT": "GENERATED VIA SPACETRACK.ORG API",
    "ORIGINATOR": "18 SPCS",
    "NORAD_CAT_ID": "46469",
    "OBJECT_NAME": "HAIYANG 2C",
    "OBJECT_TYPE": "PAYLOAD",
    "CLASSIFICATION_TYPE": "U",
    "INTLDES": "20066A",
    "EPOCH": "2023-04-04 12:12:33",
    "EPOCH_MICROSECONDS": "572160",
    "MEAN_MOTION": "13.83374885",
    "ECCENTRICITY": "0.000602",
    "INCLINATION": "65.9952",
    "RA_OF_ASC_NODE": "247.5285",
    "ARG_OF_PERICENTER": "296.341",
    "MEAN_ANOMALY": "63.7022",
    "EPHEMERIS_TYPE": "0",
    "ELEMENT_SET_NO": "999",
    "REV_AT_EPOCH": "12799",
    "BSTAR": "0.000085865",
    "MEAN_MOTION_DOT": "0.00000013",
    "MEAN_MOTION_DDOT": "0",
    "FILE": "3879974",
    "TLE_LINE0": "0 HAIYANG 2C",
    "TLE_LINE1": "1 46469U 20066A   23094.50872190  .00000013  00000-0  85865-4 0  9993",
    "TLE_LINE2": "2 46469  65.9952 247.5285 0006020 296.3410  63.7022 13.83374885127991",
    "OBJECT_ID": "2020-066A",
    "OBJECT_NUMBER": "46469",
    "SEMIMAJOR_AXIS": "7330.078",
    "PERIOD": "104.093",
    "APOGEE": "956.355",
    "PERIGEE": "947.530",
    "DECAYED": "0"
  },
  {
    "COMMENT": "GENERATED VIA SPACETRACK.ORG API",
    "ORIGINATOR": "18 SPCS",
    "NORAD_CAT_ID": "46469",
    "OBJECT_NAME": "HAIYANG 2C",
    "OBJECT_TYPE": "PAYLOAD",
    "CLASSIFICATION_TYPE": "U",
    "INTLDES": "20066A",
    "EPOCH": "2023-04-04 17:24:52",
    "EPOCH_MICROSECONDS": "392960",
    "MEAN_MOTION": "13.83374988",
    "ECCENTRICITY": "0.0006033",
    "INCLINATION": "65.9953",
    "RA_OF_ASC_NODE": "246.9886",
    "ARG_OF_PERICENTER": "296.355",
    "MEAN_ANOMALY": "63.69",
    "EPHEMERIS_TYPE": "0",
    "ELEMENT_SET_NO": "999",
    "REV_AT_EPOCH": "12802",
    "BSTAR": "0.000092347",
    "MEAN_MOTION_DOT": "0.0000002",
    "MEAN_MOTION_DDOT": "0",
    "FILE": "3880055",
    "TLE_LINE0": "0 HAIYANG 2C",
    "TLE_LINE1": "1 46469U 20066A   23094.72560640  .00000020  00000-0  92347-4 0  9992",
    "TLE_LINE2": "2 46469  65.9953 246.9886 0006033 296.3550  63.6900 13.83374988128024",
    "OBJECT_ID": "2020-066A",
    "OBJECT_NUMBER": "46469",
    "SEMIMAJOR_AXIS": "7330.077",
    "PERIOD": "104.093",
    "APOGEE": "956.365",
    "PERIGEE": "947.520",
    "DECAYED": "0"
  },
  {
    "COMMENT": "GENERATED VIA SPACETRACK.ORG API",
    "ORIGINATOR": "18 SPCS",
    "NORAD_CAT_ID": "46469",
    "OBJECT_NAME": "HAIYANG 2C",
    "OBJECT_TYPE": "PAYLOAD",
    "CLASSIFICATION_TYPE": "U",
    "INTLDES": "20066A",
    "EPOCH": "2023-04-04 20:53:04",
    "EPOCH_MICROSECONDS": "916256",
    "MEAN_MOTION": "13.83375048",
    "ECCENTRICITY": "0.0006037",
    "INCLINATION": "65.9954",
    "RA_OF_ASC_NODE": "246.6287",
    "ARG_OF_PERICENTER": "296.4605",
    "MEAN_ANOMALY": "63.5845",
    "EPHEMERIS_TYPE": "0",
    "ELEMENT_SET_NO": "999",
    "REV_AT_EPOCH": "12804",
    "BSTAR": "0.00009354",
    "MEAN_MOTION_DOT": "0.00000022",
    "MEAN_MOTION_DDOT": "0",
    "FILE": "3880211",
    "TLE_LINE0": "0 HAIYANG 2C",
    "TLE_LINE1": "1 46469U 20066A   23094.87019579  .00000022  00000-0  93540-4 0  9996",
    "TLE_LINE2": "2 46469  65.9954 246.6287 0006037 296.4605  63.5845 13.83375048128040",
    "OBJECT_ID": "2020-066A",
    "OBJECT_NUMBER": "46469",
    "SEMIMAJOR_AXIS": "7330.077",
    "PERIOD": "104.093",
    "APOGEE": "956.367",
    "PERIGEE": "947.517",
    "DECAYED": "0"
  },
  {
    "COMMENT": "GENERATED VIA SPACETRACK.ORG API",
    "ORIGINATOR": "18 SPCS",
    "NORAD_CAT_ID": "46469",
    "OBJECT_NAME": "HAIYANG 2C",
    "OBJECT_TYPE": "PAYLOAD",
    "CLASSIFICATION_TYPE": "U",
    "INTLDES": "20066A",
    "EPOCH": "2023-04-05 05:33:36",
    "EPOCH_MICROSECONDS": "223200",
    "MEAN_MOTION": "13.83375183",
    "ECCENTRICITY": "0.0006053",
    "INCLINATION": "65.9954",
    "RA_OF_ASC_NODE": "245.7287",
    "ARG_OF_PERICENTER": "296.3704",
    "MEAN_ANOMALY": "63.6748",
    "EPHEMERIS_TYPE": "0",
    "ELEMENT_SET_NO": "999",
    "REV_AT_EPOCH": "12809",
    "BSTAR": "0.000096867",
    "MEAN_MOTION_DOT": "0.00000025",
    "MEAN_MOTION_DDOT": "0",
    "FILE": "3880338",
    "TLE_LINE0": "0 HAIYANG 2C",
    "TLE_LINE1": "1 46469U 20066A   23095.23166925  .00000025  00000-0  96867-4 0  9993",
    "TLE_LINE2": "2 46469  65.9954 245.7287 0006053 296.3704  63.6748 13.83375183128095",
    "OBJECT_ID": "2020-066A",
    "OBJECT_NUMBER": "46469",
    "SEMIMAJOR_AXIS": "7330.077",
    "PERIOD": "104.093",
    "APOGEE": "956.379",
    "PERIGEE": "947.505",
    "DECAYED": "0"
  },
  {
    "COMMENT": "GENERATED VIA SPACETRACK.ORG API",
    "ORIGINATOR": "18 SPCS",
    "NORAD_CAT_ID": "46469",
    "OBJECT_NAME": "HAIYANG 2C",
    "OBJECT_TYPE": "PAYLOAD",
    "CLASSIFICATION_TYPE": "U",
    "INTLDES": "20066A",
    "EPOCH": "2023-04-05 10:45:54",
    "EPOCH_MICROSECONDS": "998208",
    "MEAN_MOTION": "13.83375161",
    "ECCENTRICITY": "0.0006058",
    "INCLINATION": "65.9954",
    "RA_OF_ASC_NODE": "245.1888",
    "ARG_OF_PERICENTER": "296.4519",
    "MEAN_ANOMALY": "63.592",
    "EPHEMERIS_TYPE": "0",
    "ELEMENT_SET_NO": "999",
    "REV_AT_EPOCH": "12812",
    "BSTAR": "0.000091565",
    "MEAN_MOTION_DOT": "0.0000002",
    "MEAN_MOTION_DDOT": "0",
    "FILE": "3880701",
    "TLE_LINE0": "0 HAIYANG 2C",
    "TLE_LINE1": "1 46469U 20066A   23095.44855322  .00000020  00000-0  91565-4 0  9997",
    "TLE_LINE2": "2 46469  65.9954 245.1888 0006058 296.4519  63.5920 13.83375161128127",
    "OBJECT_ID": "2020-066A",
    "OBJECT_NUMBER": "46469",
    "SEMIMAJOR_AXIS": "7330.077",
    "PERIOD": "104.093",
    "APOGEE": "956.382",
    "PERIGEE": "947.501",
    "DECAYED": "0"
  },
  {
    "COMMENT": "GENERATED VIA SPACETRACK.ORG API",
    "ORIGINATOR": "18 SPCS",
    "NORAD_CAT_ID": "46469",
    "OBJECT_NAME": "HAIYANG 2C",
    "OBJECT_TYPE": "PAYLOAD",
    "CLASSIFICATION_TYPE": "U",
    "INTLDES": "20066A",
    "EPOCH": "2023-04-05 14:14:07",
    "EPOCH_MICROSECONDS": "535328",
    "MEAN_MOTION": "13.83375168",
    "ECCENTRICITY": "0.000607",
    "INCLINATION": "65.9954",
    "RA_OF_ASC_NODE": "244.8287",
    "ARG_OF_PERICENTER": "296.5437",
    "MEAN_ANOMALY": "63.5002",
    "EPHEMERIS_TYPE": "0",
    "ELEMENT_SET_NO": "999",
    "REV_AT_EPOCH": "12814",
    "BSTAR": "0.000091814",
    "MEAN_MOTION_DOT": "0.0000002",
    "MEAN_MOTION_DDOT": "0",
    "FILE": "3880853",
    "TLE_LINE0": "0 HAIYANG 2C",
    "TLE_LINE1": "1 46469U 20066A   23095.59314277  .00000020  00000-0  91814-4 0  9999",
    "TLE_LINE2": "2 46469  65.9954 244.8287 0006070 296.5437  63.5002 13.83375168128140",
    "OBJECT_ID": "2020-066A",
    "OBJECT_NUMBER": "46469",
    "SEMIMAJOR_AXIS": "7330.077",
    "PERIOD": "104.093",
    "APOGEE": "956.391",
    "PERIGEE": "947.492",
    "DECAYED": "0"
  },
  {
    "COMMENT": "GENERATED VIA SPACETRACK.ORG API",
    "ORIGINATOR": "18 SPCS",
    "NORAD_CAT_ID": "46469",
    "OBJECT_NAME": "HAIYANG 2C",
    "OBJECT_TYPE": "PAYLOAD",
    "CLASSIFICATION_TYPE": "U",
    "INTLDES": "20066A",
    "EPOCH": "2023-04-05 19:26:26",
    "EPOCH_MICROSECONDS": "332800",
    "MEAN_MOTION": "13.83375254",
    "ECCENTRICITY": "0.0006084",
    "INCLINATION": "65.9954",
    "RA_OF_ASC_NODE": "244.2887",
    "ARG_OF_PERICENTER": "296.6689",
    "MEAN_ANOMALY": "63.3757",
    "EPHEMERIS_TYPE": "0",
    "ELEMENT_SET_NO": "999",
    "REV_AT_EPOCH": "12817",
    "BSTAR": "0.000095042",
    "MEAN_MOTION_DOT": "0.00000023",
    "MEAN_MOTION_DDOT": "0",
    "FILE": "3880992",
    "TLE_LINE0": "0 HAIYANG 2C",
    "TLE_LINE1": "1 46469U 20066A   23095.81002700  .00000023  00000-0  95042-4 0  9999",
    "TLE_LINE2": "2 46469  65.9954 244.2887 0006084 296.6689  63.3757 13.83375254128179",
    "OBJECT_ID": "2020-066A",
    "OBJECT_NUMBER": "46469",
    "SEMIMAJOR_AXIS": "7330.076",
    "PERIOD": "104.093",
    "APOGEE": "956.401",
    "PERIGEE": "947.482",
    "DECAYED": "0"
  },
  {
    "COMMENT": "GENERATED VIA SPACETRACK.ORG API",
    "ORIGINATOR": "18 SPCS",
    "NORAD_CAT_ID": "46469",
    "OBJECT_NAME": "HAIYANG 2C",
    "OBJECT_TYPE": "PAYLOAD",
    "CLASSIFICATION_TYPE": "U",
    "INTLDES": "20066A",
    "EPOCH": "2023-04-05 22:54:38",
    "EPOCH_MICROSECONDS": "852640",
    "MEAN_MOTION": "13.83375327",
    "ECCENTRICITY": "0.0006092",
    "INCLINATION": "65.9954",
    "RA_OF_ASC_NODE": "243.9287",
    "ARG_OF_PERICENTER": "296.6807",
    "MEAN_ANOMALY": "63.3643",
    "EPHEMERIS_TYPE": "0",
    "ELEMENT_SET_NO": "999",
    "REV_AT_EPOCH": "12819",
    "BSTAR": "0.000097424",
    "MEAN_MOTION_DOT": "0.00000026",
    "MEAN_MOTION_DDOT": "0",
    "FILE": "3881153",
    "TLE_LINE0": "0 HAIYANG 2C",
    "TLE_LINE1": "1 46469U 20066A   23095.95461635  .00000026  00000-0  97424-4 0  9999",
    "TLE_LINE2": "2 46469  65.9954 243.9287 0006092 296.6807  63.3643 13.83375327128197",
    "OBJECT_ID": "2020-066A",
    "OBJECT_NUMBER": "46469",
    "SEMIMAJOR_AXIS": "7330.076",
    "PERIOD": "104.093",
    "APOGEE": "956.407",
    "PERIGEE": "947.476",
    "DECAYED": "0"
  }
]